QIANFAN-9               
1 60387U 24140J   25273.80495012  .00000100  00000+0  13667-3 0  9999
2 60387  88.9768 306.8965 0017847  53.7621 306.5177 13.50972300 57483
QIANFAN-10              
1 60388U 24140K   25273.80907308  .00000096  00000+0  12920-3 0  9991
2 60388  88.9776 306.2364 0015642  33.4965 326.7172 13.50969403 57611
QIANFAN-11              
1 60389U 24140L   25273.84606500  .00000100  00000+0  13638-3 0  9999
2 60389  88.9704 306.8740 0015871  54.0556 306.2064 13.50969997 57279
QIANFAN-12              
1 60390U 24140M   25273.86658822  .00000115  00000+0  15911-3 0  9999
2 60390  88.9747 306.8834 0014891  61.6964 298.5688 13.50970143 57405
QIANFAN-13              
1 60391U 24140N   25273.83780501  .00000121  00000+0  16901-3 0  9994
2 60391  88.9760 306.9773 0014770  64.2124 296.0549 13.50970292 57423
QIANFAN-14              
1 60392U 24140P   25273.86241425  .00000124  00000+0  17304-3 0  9996
2 60392  88.9738 306.8880 0018442  63.0354 297.2678 13.50971045 57433
QIANFAN-15              
1 60393U 24140Q   25273.79660567  .00000114  00000+0  15849-3 0  9992
2 60393  88.9761 306.8339 0013933  52.3187 307.9225 13.50974538 57419
QIANFAN-16              
1 60394U 24140R   25273.85844056  .00000122  00000+0  16968-3 0  9999
2 60394  88.9765 306.9455 0016458  67.0433 293.2453 13.50970091 57337
